OBJECT_NAME,OBJECT_ID,EPOCH,MEAN_MOTION,ECCENTRICITY,INCLINATION,RA_OF_ASC_NODE,ARG_OF_PERICENTER,MEAN_ANOMALY,EPHEMERIS_TYPE,CLASSIFICATION_TYPE,NORAD_CAT_ID,ELEMENT_SET_NO,REV_AT_EPOCH,BSTAR,MEAN_MOTION_DOT,MEAN_MOTION_DDOT
FENGYUN 3D,2017-072A,2026-06-24T06:22:02.773632,14.19742043,.0002401,99.0129,149.8154,50.8041,309.3347,0,U,43010,999,44599,.24723433E-3,.477E-5,0
NOAA 20 (JPSS-1),2017-073A,2026-06-24T04:34:57.392256,14.19512876,.00005063,98.7772,114.5913,130.2018,229.9202,0,U,43013,999,44546,.31656711E-4,.23E-6,0
GOES 17,2018-022A,2026-06-24T07:07:20.750016,1.00273081,.00005798,0.9553,85.5877,16.6900,187.4905,0,U,43226,999,3049,0,-.175E-5,0
SENTINEL-3B,2018-039A,2026-06-24T04:51:53.400096,14.26736509,.00007319,98.6245,242.6343,102.3098,257.8165,0,U,43437,999,42512,.50077163E-4,.78E-6,0
FENGYUN 2H,2018-050A,2026-06-24T02:45:22.711680,1.00269578,.00016752,3.0500,79.0011,128.9794,184.9906,0,U,43491,999,2950,0,-.124E-5,0
METOP-C,2018-087A,2026-06-24T05:56:28.993920,14.21513775,.00019744,98.6641,234.7221,120.7677,239.3695,0,U,43689,999,39583,.52361557E-4,.71E-6,0
GEO-KOMPSAT-2A,2018-100A,2026-06-23T17:06:39.470112,1.00271032,.00023458,0.0498,141.1546,308.4741,207.1719,0,U,43823,999,2769,0,-.338E-5,0
METEOR-M2 2,2019-038A,2026-06-24T06:27:46.090944,14.24368362,.00017996,98.9149,162.6593,37.9572,322.1733,0,U,44387,999,36230,.11363213E-3,.217E-5,0
ARKTIKA-M 1,2021-016A,2026-06-17T11:46:36.471360,2.00622504,.72885287,63.2922,57.5948,269.9420,14.6012,0,U,47719,999,3879,0,-.21E-5,0
FENGYUN 3E,2021-062A,2026-06-24T07:39:09.098784,14.19904912,.00028174,98.7498,178.6474,73.8457,286.3029,0,U,49008,999,25759,.21683659E-4,.2E-7,0
GOES 18,2022-021A,2026-06-23T22:18:18.296352,1.00272065,.00005086,0.0347,147.7106,337.3264,344.6155,0,U,51850,999,666,0,.103E-5,0
NOAA 21 (JPSS-2),2022-150A,2026-06-24T05:21:58.029984,14.19566515,.00020075,98.7060,113.8947,139.2826,220.8501,0,U,54234,999,18754,.36182546E-4,.33E-6,0
METEOSAT-12 (MTG-I1),2022-170C,2026-06-24T04:05:18.524256,1.00274754,.00035407,0.7461,24.1339,71.1695,237.9898,0,U,54743,999,1304,0,-.1E-7,0
TIANMU-1 03,2023-039A,2026-06-24T07:01:54.303168,15.47461877,.00040344,97.5237,349.5412,82.6225,277.5483,0,U,55973,999,18193,.26703612E-3,.13612E-3,0
TIANMU-1 04,2023-039B,2026-06-24T06:42:47.303424,15.48065558,.00045505,97.5173,348.6816,76.0507,284.1249,0,U,55974,999,18194,.27314039E-3,.14223E-3,0
TIANMU-1 05,2023-039C,2026-06-24T06:34:42.295296,15.47385038,.00040432,97.5217,349.1342,97.8010,262.3698,0,U,55975,999,18191,.26472901E-3,.13457E-3,0
TIANMU-1 06,2023-039D,2026-06-24T06:48:17.517312,15.47968226,.00042143,97.5226,349.7865,92.5031,267.6701,0,U,55976,999,18194,.27718436E-3,.14385E-3,0
FENGYUN 3G,2023-055A,2026-06-24T05:59:22.898112,15.52907569,.00071728,49.9932,309.6241,326.0285,34.0222,0,U,56232,999,18110,.3399574E-3,.21166E-3,0
METEOR-M2 3,2023-091A,2026-06-24T06:21:55.409760,14.24047293,.00047037,98.6080,230.0988,138.0519,222.1021,0,U,57166,999,15552,.11251092E-4,-.17E-6,0
TIANMU-1 07,2023-101A,2026-06-24T07:04:54.741792,15.29877856,.000435,97.2594,225.8001,106.9430,253.2288,0,U,57399,999,16273,.19485911E-3,.5564E-4,0
TIANMU-1 08,2023-101B,2026-06-24T06:16:50.881728,15.29882062,.00056952,97.2582,225.5370,97.9984,262.1903,0,U,57400,999,16272,.18788807E-3,.5364E-4,0
TIANMU-1 09,2023-101C,2026-06-24T05:52:45.206688,15.29915211,.00048773,97.2540,224.9328,111.0942,249.0821,0,U,57401,999,16272,.19327767E-3,.5525E-4,0
TIANMU-1 10,2023-101D,2026-06-24T06:40:31.974240,15.29887711,.00064257,97.2620,226.0230,107.9317,252.2625,0,U,57402,999,16272,.2049619E-3,.586E-4,0
FENGYUN 3F,2023-111A,2026-06-24T07:15:45.131616,14.19940126,.00015592,98.6834,245.1788,87.9729,272.1626,0,U,57490,999,14987,.3336434E-4,.27E-6,0
ARKTIKA-M 2,2023-198A,2026-06-23T17:46:44.121216,2.00611379,.69049491,63.2421,153.6337,267.3888,18.7567,0,U,58584,999,1845,0,.167E-5,0
TIANMU-1 11,2023-205A,2026-06-24T07:51:11.198880,15.27058248,.00080927,97.3448,196.7719,351.8463,8.2643,0,U,58645,999,13861,.18587771E-3,.4865E-4,0
TIANMU-1 12,2023-205B,2026-06-24T07:08:44.876832,15.27024718,.00058818,97.3438,196.4972,336.4649,23.6320,0,U,58646,999,13859,.18701617E-3,.4888E-4,0
TIANMU-1 13,2023-205C,2026-06-24T07:56:04.456896,15.26877486,.00052092,97.3465,196.8032,310.7915,49.2872,0,U,58647,999,13859,.19190079E-3,.4995E-4,0
TIANMU-1 14,2023-205D,2026-06-24T07:34:28.217568,15.26922063,.00061409,97.3400,195.9646,315.9553,44.1197,0,U,58648,999,13859,.1868027E-3,.4867E-4,0
TIANMU-1 19,2023-208A,2026-06-24T06:39:39.888864,15.31665075,.00034448,97.4504,291.6140,294.1862,65.9019,0,U,58660,999,13841,.24426232E-3,.7391E-4,0
