FENGYUN 3D              
1 43010U 17072A   26175.26530988  .00000477  00000+0  24723-3 0  9995
2 43010  99.0129 149.8154 0002401  50.8041 309.3347 14.19742043445992
NOAA 20 (JPSS-1)        
1 43013U 17073A   26175.19094204  .00000023  00000+0  31657-4 0  9999
2 43013  98.7772 114.5913 0000506 130.2018 229.9202 14.19512876445466
GOES 17                 
1 43226U 18022A   26175.29676794 -.00000175  00000+0  00000+0 0  9993
2 43226   0.9553  85.5877 0000579  16.6900 187.4905  1.00273081 30496
SENTINEL-3B             
1 43437U 18039A   26175.20270139  .00000078  00000+0  50077-4 0  9994
2 43437  98.6245 242.6343 0000731 102.3098 257.8165 14.26736509425126
FENGYUN 2H              
1 43491U 18050A   26175.11484620 -.00000124  00000+0  00000+0 0  9998
2 43491   3.0500  79.0011 0001675 128.9794 184.9906  1.00269578 29509
METOP-C                 
1 43689U 18087A   26175.24755780  .00000071  00000+0  52362-4 0  9992
2 43689  98.6641 234.7221 0001974 120.7677 239.3695 14.21513775395839
GEO-KOMPSAT-2A          
1 43823U 18100A   26174.71295683 -.00000338  00000+0  00000+0 0  9994
2 43823   0.0498 141.1546 0002345 308.4741 207.1719  1.00271032 27693
METEOR-M2 2             
1 44387U 19038A   26175.26928346  .00000217  00000+0  11363-3 0  9994
2 44387  98.9149 162.6593 0001799  37.9572 322.1733 14.24368362362303
ARKTIKA-M 1             
1 47719U 21016A   26168.49069990 -.00000210  00000+0  00000+0 0  9999
2 47719  63.2922  57.5948 7288528 269.9420  14.6012  2.00622504 38796
FENGYUN 3E              
1 49008U 21062A   26175.31885531  .00000002  00000+0  21684-4 0  9993
2 49008  98.7498 178.6474 0002817  73.8457 286.3029 14.19904912257595
GOES 18                 
1 51850U 22021A   26174.92937843  .00000103  00000+0  00000+0 0  9993
2 51850   0.0347 147.7106 0000508 337.3264 344.6155  1.00272065  6661
NOAA 21 (JPSS-2)        
1 54234U 22150A   26175.22358831  .00000033  00000+0  36183-4 0  9991
2 54234  98.7060 113.8947 0002007 139.2826 220.8501 14.19566515187549
METEOSAT-12 (MTG-I1)    
1 54743U 22170C   26175.17035329 -.00000001  00000+0  00000+0 0  9996
2 54743   0.7461  24.1339 0003540  71.1695 237.9898  1.00274754 13040
TIANMU-1 03             
1 55973U 23039A   26175.29298962  .00013612  00000+0  26704-3 0  9998
2 55973  97.5237 349.5412 0004034  82.6225 277.5483 15.47461877181936
TIANMU-1 04             
1 55974U 23039B   26175.27971416  .00014223  00000+0  27314-3 0  9996
2 55974  97.5173 348.6816 0004550  76.0507 284.1249 15.48065558181949
TIANMU-1 05             
1 55975U 23039C   26175.27410064  .00013457  00000+0  26473-3 0  9997
2 55975  97.5217 349.1342 0004043  97.8010 262.3698 15.47385038181916
TIANMU-1 06             
1 55976U 23039D   26175.28353608  .00014385  00000+0  27718-3 0  9993
2 55976  97.5226 349.7865 0004214  92.5031 267.6701 15.47968226181940
FENGYUN 3G              
1 56232U 23055A   26175.24957058  .00021166  00000+0  33996-3 0  9992
2 56232  49.9932 309.6241 0007172 326.0285  34.0222 15.52907569181107
METEOR-M2 3             
1 57166U 23091A   26175.26522465 -.00000017  00000+0  11251-4 0  9995
2 57166  98.6080 230.0988 0004703 138.0519 222.1021 14.24047293155523
TIANMU-1 07             
1 57399U 23101A   26175.29507803  .00005564  00000+0  19486-3 0  9995
2 57399  97.2594 225.8001 0004350 106.9430 253.2288 15.29877856162731
TIANMU-1 08             
1 57400U 23101B   26175.26170002  .00005364  00000+0  18789-3 0  9995
2 57400  97.2582 225.5370 0005695  97.9984 262.1903 15.29882062162720
TIANMU-1 09             
1 57401U 23101C   26175.24496767  .00005525  00000+0  19328-3 0  9992
2 57401  97.2540 224.9328 0004877 111.0942 249.0821 15.29915211162720
TIANMU-1 10             
1 57402U 23101D   26175.27814785  .00005860  00000+0  20496-3 0  9990
2 57402  97.2620 226.0230 0006425 107.9317 252.2625 15.29887711162727
FENGYUN 3F              
1 57490U 23111A   26175.30260569  .00000027  00000+0  33364-4 0  9996
2 57490  98.6834 245.1788 0001559  87.9729 272.1626 14.19940126149874
ARKTIKA-M 2             
1 58584U 23198A   26174.74078844  .00000167  00000+0  00000+0 0  9997
2 58584  63.2421 153.6337 6904949 267.3888  18.7567  2.00611379 18452
TIANMU-1 11             
1 58645U 23205A   26175.32721295  .00004865  00000+0  18588-3 0  9997
2 58645  97.3448 196.7719 0008092 351.8463   8.2643 15.27058248138618
TIANMU-1 12             
1 58646U 23205B   26175.29774163  .00004888  00000+0  18702-3 0  9999
2 58646  97.3438 196.4972 0005881 336.4649  23.6320 15.27024718138599
TIANMU-1 13             
1 58647U 23205C   26175.33060714  .00004995  00000+0  19190-3 0  9996
2 58647  97.3465 196.8032 0005209 310.7915  49.2872 15.26877486138599
TIANMU-1 14             
1 58648U 23205D   26175.31560437  .00004867  00000+0  18680-3 0  9993
2 58648  97.3400 195.9646 0006140 315.9553  44.1197 15.26922063138596
TIANMU-1 19             
1 58660U 23208A   26175.27754501  .00007391  00000+0  24426-3 0  9992
2 58660  97.4504 291.6140 0003444 294.1862  65.9019 15.31665075138412
